NORAD_CAT_ID,OBJECT_NAME,OBJECT_TYPE,EPOCH,MEAN_MOTION,ECCENTRICITY,INCLINATION,RA_OF_ASC_NODE,ARG_OF_PERICENTER,MEAN_ANOMALY,BSTAR,MEAN_MOTION_DOT,MEAN_MOTION_DDOT,TLE_LINE0,TLE_LINE1,TLE_LINE2,SEMIMAJOR_AXIS,PERIOD,APOGEE,PERIGEE,DECAYED
53398.0,STARLINK-4512,PAYLOAD,2022-11-14 06:44:25,15.08829825,0.0001821,53.2176,162.3351,46.0009,314.1133,-0.00011979,-2.194e-05,0.0,0 STARLINK-4512,1 53398U 22097L   22318.28084518 -.00002194  00000-0 -11979-3 0  9998,2 53398  53.2176 162.3351 0001821  46.0009 314.1133 15.08829825 15141,6917.911,95.438,541.036,538.5169999999998,0.0
53398.0,STARLINK-4512,PAYLOAD,2022-11-14 09:55:11,15.0883227,0.000175,53.2176,161.7404,43.8202,316.2928,-0.00015292,-2.72e-05,0.0,0 STARLINK-4512,1 53398U 22097L   22318.41332468 -.00002720  00000-0 -15292-3 0  9990,2 53398  53.2176 161.7404 0001750  43.8202 316.2928 15.08832270 15653,6917.904,95.438,540.98,538.558,0.0
53398.0,STARLINK-4512,PAYLOAD,2022-11-14 17:52:06,15.08835709,0.0001733,53.217,160.2543,51.8953,308.2196,-0.00013696,-2.467e-05,0.0,0 STARLINK-4512,1 53398U 22097L   22318.74452323 -.00002467  00000-0 -13696-3 0  9993,2 53398  53.2170 160.2543 0001733  51.8953 308.2196 15.08835709 15702,6917.894,95.438,540.957,538.56,0.0
53398.0,STARLINK-4512,PAYLOAD,2022-11-14 21:02:53,15.08836314,0.0001784,53.217,159.6598,50.3349,309.7801,-0.00014004,-2.516e-05,0.0,0 STARLINK-4512,1 53398U 22097L   22318.87700325 -.00002516  00000-0 -14004-3 0  9994,2 53398  53.2170 159.6598 0001784  50.3349 309.7801 15.08836314 15233,6917.892,95.438,540.991,538.523,0.0
53398.0,STARLINK-4512,PAYLOAD,2022-11-15 06:35:11,15.08832664,0.000182,53.2173,157.8755,49.0624,311.0525,-3.0373e-05,-7.71e-06,0.0,0 STARLINK-4512,1 53398U 22097L   22319.27444439 -.00000771  00000-0 -30373-4 0  9999,2 53398  53.2173 157.8755 0001820  49.0624 311.0525 15.08832664 15786,6917.903,95.438,541.0269999999998,538.509,0.0
53398.0,STARLINK-4512,PAYLOAD,2022-11-15 20:53:40,15.08831831,0.0001805,53.2168,155.1989,47.2912,312.8232,6.4276e-05,7.35e-06,0.0,0 STARLINK-4512,1 53398U 22097L   22319.87060607  .00000735  00000-0  64276-4 0  9993,2 53398  53.2168 155.1989 0001805  47.2912 312.8232 15.08831831 15872,6917.905,95.438,541.019,538.5219999999998,0.0
53398.0,STARLINK-4512,PAYLOAD,2022-11-16 12:47:31,15.08833003,0.0001925,53.2169,152.2258,50.7498,309.3665,0.00013479,1.857e-05,0.0,0 STARLINK-4512,1 53398U 22097L   22320.53300895  .00001857  00000-0  13479-3 0  9998,2 53398  53.2169 152.2258 0001925  50.7498 309.3665 15.08833003 15482,6917.901999999999,95.438,541.0980000000002,538.435,0.0
53398.0,STARLINK-4512,PAYLOAD,2022-11-16 19:09:04,15.08836216,0.000193,53.2168,151.0363,51.1794,308.937,0.0001575,2.219e-05,0.0,0 STARLINK-4512,1 53398U 22097L   22320.79796810  .00002219  00000-0  15750-3 0  9999,2 53398  53.2168 151.0363 0001930  51.1794 308.9370 15.08836216 16012,6917.892,95.438,541.092,538.422,0.0
53398.0,STARLINK-4512,PAYLOAD,2022-11-17 15:49:09,15.08782691,0.0001981,53.2177,147.1708,50.6675,309.4493,-0.0004053999999999,-6.724e-05,0.0,0 STARLINK-4512,1 53398U 22097L   22321.65913355 -.00006724  00000-0 -40540-3 0  9992,2 53398  53.2177 147.1708 0001981  50.6675 309.4493 15.08782691 15657,6918.056,95.441,541.2909999999998,538.55,0.0
53398.0,STARLINK-4512,PAYLOAD,2022-11-18 01:21:23,15.08848493,0.0002001,53.2168,145.3861,53.2896,306.8279,0.00013832,1.914e-05,0.0,0 STARLINK-4512,1 53398U 22097L   22322.05651974  .00001914  00000-0  13832-3 0  9991,2 53398  53.2168 145.3861 0002001  53.2896 306.8279 15.08848493 15718,6917.854,95.437,541.104,538.335,0.0
53398.0,STARLINK-4512,PAYLOAD,2022-11-18 12:29:05,15.08848792,0.0002018,53.217,143.3047,54.4841,305.634,0.00011103,1.4800000000000002e-05,0.0,0 STARLINK-4512,1 53398U 22097L   22322.52019899  .00001480  00000-0  11103-3 0  9994,2 53398  53.2170 143.3047 0002018  54.4841 305.6340 15.08848792 16276,6917.854,95.437,541.115,538.322,0.0
53398.0,STARLINK-4512,PAYLOAD,2022-11-18 18:50:38,15.08841192,0.0002016,53.2173,142.1141,55.5283,304.59,3.1568e-05,2.14e-06,0.0,0 STARLINK-4512,1 53398U 22097L   22322.78516438  .00000214  00000-0  31568-4 0  9995,2 53398  53.2173 142.1141 0002016  55.5283 304.5900 15.08841192 15828,6917.877,95.437,541.136,538.347,0.0
53398.0,STARLINK-4512,PAYLOAD,2022-11-19 10:44:29,15.08844547,0.0002006,53.217,139.1412,51.3375,308.7796,-9.3472e-07,-3.03e-06,0.0,0 STARLINK-4512,1 53398U 22097L   22323.44756194 -.00000303  00000-0 -93472-6 0  9999,2 53398  53.2170 139.1412 0002006  51.3375 308.7796 15.08844547 16419,6917.866,95.437,541.119,538.344,0.0
53398.0,STARLINK-4512,PAYLOAD,2022-11-19 20:16:47,15.08851648,0.0002034,53.217,137.3573,51.7757,308.3418,-8.032e-05,-1.567e-05,0.0,0 STARLINK-4512,1 53398U 22097L   22323.84499754 -.00001567  00000-0 -80320-4 0  9998,2 53398  53.2170 137.3573 0002034  51.7757 308.3418 15.08851648 16479,6917.845,95.437,541.117,538.303,0.0
53398.0,STARLINK-4512,PAYLOAD,2022-11-20 04:13:43,15.08847243,0.0002055,53.2171,135.8705,53.5977,306.5205,1.4311e-05,-6e-07,0.0,0 STARLINK-4512,1 53398U 22097L   22324.17619636 -.00000060  00000-0  14311-4 0  9991,2 53398  53.2171 135.8705 0002055  53.5977 306.5205 15.08847243 16039,6917.858,95.437,541.145,538.302,0.0
53398.0,STARLINK-4512,PAYLOAD,2022-11-20 12:10:39,15.08819096,0.000198,53.217,134.3837,61.733,298.3862,0.00044524,6.801e-05,0.0,0 STARLINK-4512,1 53398U 22097L   22324.50740271  .00006801  00000-0  44524-3 0  9994,2 53398  53.2170 134.3837 0001980  61.7330 298.3862 15.08819096 16085,6917.944,95.439,541.179,538.44,0.0
53398.0,STARLINK-4512,PAYLOAD,2022-11-20 21:42:58,15.08831793,0.0001991,53.217,132.5996,53.2665,306.851,8.115000000000002e-07,-2.75e-06,0.0,0 STARLINK-4512,1 53398U 22097L   22324.90484322 -.00000275  00000-0  81150-6 0  9999,2 53398  53.2170 132.5996 0001991  53.2665 306.8510 15.08831793 16634,6917.905,95.438,541.148,538.393,0.0
53398.0,STARLINK-4512,PAYLOAD,2022-11-21 12:01:26,15.08853453,0.0002347,53.217,129.9233,52.9028,307.2178,-0.00024279,-4.152e-05,0.0,0 STARLINK-4512,1 53398U 22097L   22325.50099801 -.00004152  00000-0 -24279-3 0  9995,2 53398  53.2170 129.9233 0002347  52.9028 307.2178 15.08853453 16725,6917.839,95.437,541.328,538.081,0.0
53398.0,STARLINK-4512,PAYLOAD,2022-11-21 16:47:35,15.08837154,0.0002001,53.2172,129.0313,53.7943,306.3234,2.7716000000000003e-06,-2.44e-06,0.0,0 STARLINK-4512,1 53398U 22097L   22325.69972172 -.00000244  00000-0  27716-5 0  9994,2 53398  53.2172 129.0313 0002001  53.7943 306.3234 15.08837154 16261,6917.889,95.438,541.138,538.37,0.0
53398.0,STARLINK-4512,PAYLOAD,2022-11-21 21:33:45,15.08842735,0.0001987,53.2172,128.1392,53.7263,306.3912,-4.527600000000001e-05,-1.009e-05,0.0,0 STARLINK-4512,1 53398U 22097L   22325.89843947 -.00001009  00000-0 -45276-4 0  9994,2 53398  53.2172 128.1392 0001987  53.7263 306.3912 15.08842735 16786,6917.871999999999,95.437,541.112,538.362,0.0
53398.0,STARLINK-4512,PAYLOAD,2022-11-22 13:27:36,15.08843582,0.0002012,53.2173,125.1654,53.6628,306.455,1.7629e-05,-8e-08,0.0,0 STARLINK-4512,1 53398U 22097L   22326.56083685 -.00000008  00000-0  17629-4 0  9992,2 53398  53.2173 125.1654 0002012  53.6628 306.4550 15.08843582 16880,6917.869000000002,95.437,541.126,538.3430000000002,0.0
53398.0,STARLINK-4512,PAYLOAD,2022-11-22 16:38:22,15.08845149,0.0002017,53.2173,124.5707,53.6727,306.4451,1.793e-05,-3e-08,0.0,0 STARLINK-4512,1 53398U 22097L   22326.69331552 -.00000003  00000-0  17930-4 0  9995,2 53398  53.2173 124.5707 0002017  53.6727 306.4451 15.08845149 16417,6917.865,95.437,541.125,538.3340000000002,0.0
53398.0,STARLINK-4512,PAYLOAD,2022-11-22 21:24:31,15.08846611,0.000203,53.2174,123.6786,53.4783,306.6395,2.1402e-05,5.2e-07,0.0,0 STARLINK-4512,1 53398U 22097L   22326.89203362  .00000052  00000-0  21402-4 0  9996,2 53398  53.2174 123.6786 0002030  53.4783 306.6395 15.08846611 16931,6917.86,95.437,541.13,538.321,0.0
53398.0,STARLINK-4512,PAYLOAD,2022-11-23 05:21:28,15.08828729,0.0001994,53.2174,122.1916,53.9416,306.176,2.2838e-05,7.5e-07,0.0,0 STARLINK-4512,1 53398U 22097L   22327.22324587  .00000075  00000-0  22838-4 0  9996,2 53398  53.2174 122.1916 0001994  53.9416 306.1760 15.08828729 16498,6917.915,95.438,541.159,538.4,0.0
53398.0,STARLINK-4512,PAYLOAD,2022-11-23 11:43:01,15.08830103,0.0001983,53.2173,121.0021,54.2949,305.8227,7.957300000000001e-06,-1.62e-06,0.0,0 STARLINK-4512,1 53398U 22097L   22327.48820677 -.00000162  00000-0  79573-5 0  9992,2 53398  53.2173 121.0021 0001983  54.2949 305.8227 15.08830103 17028,6917.911,95.438,541.1469999999998,538.404,0.0
53398.0,STARLINK-4512,PAYLOAD,2022-11-23 19:39:56,15.088331,0.0001964,53.2174,119.5153,54.5775,305.54,1.2857e-05,-8.4e-07,0.0,0 STARLINK-4512,1 53398U 22097L   22327.81940591 -.00000084  00000-0  12857-4 0  9991,2 53398  53.2174 119.5153 0001964  54.5775 305.5400 15.08833100 17071,6917.901,95.438,541.125,538.408,0.0
53398.0,STARLINK-4512,PAYLOAD,2022-11-24 05:12:15,15.08837708,0.0001979,53.2176,117.7313,53.6476,306.4698,2.8217e-05,1.61e-06,0.0,0 STARLINK-4512,1 53398U 22097L   22328.21684381  .00000161  00000-0  28217-4 0  9990,2 53398  53.2176 117.7313 0001979  53.6476 306.4698 15.08837708 16644,6917.887,95.438,541.121,538.383,0.0
53398.0,STARLINK-4512,PAYLOAD,2022-11-24 09:58:24,15.08838942,0.0001973,53.2175,116.839,54.6236,305.494,2.8248e-05,1.61e-06,0.0,0 STARLINK-4512,1 53398U 22097L   22328.41556310  .00000161  00000-0  28248-4 0  9996,2 53398  53.2175 116.8390 0001973  54.6236 305.4940 15.08838942 17165,6917.884,95.438,541.114,538.384,0.0
53398.0,STARLINK-4512,PAYLOAD,2022-11-24 21:06:06,15.08844188,0.0001982,53.2175,114.7577,53.9136,306.204,4.179300000000001e-05,3.77e-06,0.0,0 STARLINK-4512,1 53398U 22097L   22328.87923873  .00000377  00000-0  41793-4 0  9997,2 53398  53.2175 114.7577 0001982  53.9136 306.2040 15.08844188 17237,6917.868,95.437,541.104,538.361,0.0
